[{"OBJECT_NAME":"IRIDIUM 129","OBJECT_ID":"2017-061D","EPOCH":"2026-03-09T22:44:30.673536","MEAN_MOTION":14.34217481,"ECCENTRICITY":0.0002338,"INCLINATION":86.3914,"RA_OF_ASC_NODE":66.7388,"ARG_OF_PERICENTER":83.3381,"MEAN_ANOMALY":276.8081,"EPHEMERIS_TYPE":0,"CLASSIFICATION_TYPE":"U","NORAD_CAT_ID":42958,"ELEMENT_SET_NO":999,"REV_AT_EPOCH":44057,"BSTAR":-5.174136e-6,"MEAN_MOTION_DOT":5.0e-8,"MEAN_MOTION_DDOT":0},{"OBJECT_NAME":"COSMOS 2251 DEB","OBJECT_ID":"1993-036XS","EPOCH":"2026-03-08T22:17:45.331296","MEAN_MOTION":14.36556757,"ECCENTRICITY":0.00247999,"INCLINATION":74.0347,"RA_OF_ASC_NODE":147.222,"ARG_OF_PERICENTER":205.6406,"MEAN_ANOMALY":270.5396,"EPHEMERIS_TYPE":0,"CLASSIFICATION_TYPE":"U","NORAD_CAT_ID":34672,"ELEMENT_SET_NO":999,"REV_AT_EPOCH":66415,"BSTAR":0.00026912028,"MEAN_MOTION_DOT":7.67e-6,"MEAN_MOTION_DDOT":0}]
